{
  "links" : {
    "next" : "https://api.nasa.gov/neo/rest/v1/feed?start_date=2006-02-09&end_date=2006-02-09&detailed=true&api_key=t0TVs3DtDT2H8Oy2Zy8m2eVrNsAVKAexjcZXUckd",
    "prev" : "https://api.nasa.gov/neo/rest/v1/feed?start_date=2006-02-07&end_date=2006-02-07&detailed=true&api_key=t0TVs3DtDT2H8Oy2Zy8m2eVrNsAVKAexjcZXUckd",
    "self" : "https://api.nasa.gov/neo/rest/v1/feed?start_date=2006-02-08&end_date=2006-02-08&detailed=true&api_key=t0TVs3DtDT2H8Oy2Zy8m2eVrNsAVKAexjcZXUckd"
  },
  "element_count" : 9,
  "near_earth_objects" : {
    "2006-02-08" : [ {
      "links" : {
        "self" : "https://api.nasa.gov/neo/rest/v1/neo/3312035?api_key=t0TVs3DtDT2H8Oy2Zy8m2eVrNsAVKAexjcZXUckd"
      },
      "neo_reference_id" : "3312035",
      "name" : "(2006 AM8)",
      "nasa_jpl_url" : "http://ssd.jpl.nasa.gov/sbdb.cgi?sstr=3312035",
      "absolute_magnitude_h" : 19.5,
      "estimated_diameter" : {
        "kilometers" : {
          "estimated_diameter_min" : 0.3346223745,
          "estimated_diameter_max" : 0.7482383761
        },
        "meters" : {
          "estimated_diameter_min" : 334.6223744549,
          "estimated_diameter_max" : 748.2383760735
        },
        "miles" : {
          "estimated_diameter_min" : 0.2079246394,
          "estimated_diameter_max" : 0.464933628
        },
        "feet" : {
          "estimated_diameter_min" : 1097.8424710066,
          "estimated_diameter_max" : 2454.8503937571
        }
      },
      "is_potentially_hazardous_asteroid" : false,
      "close_approach_data" : [ {
        "close_approach_date" : "2006-02-08",
        "epoch_date_close_approach" : 1139385600000,
        "relative_velocity" : {
          "kilometers_per_second" : "23.6533712699",
          "kilometers_per_hour" : "85152.1365715558",
          "miles_per_hour" : "52910.226193587"
        },
        "miss_distance" : {
          "astronomical" : "0.2063436717",
          "lunar" : "80.2676849365",
          "kilometers" : "30868574",
          "miles" : "19180842"
        },
        "orbiting_body" : "Earth"
      } ],
      "orbital_data" : {
        "orbit_id" : "17",
        "orbit_determination_date" : "2017-04-06 09:09:25",
        "orbit_uncertainty" : "2",
        "minimum_orbit_intersection" : ".151041",
        "jupiter_tisserand_invariant" : "3.498",
        "epoch_osculation" : "2458000.5",
        "eccentricity" : ".7950704641424672",
        "semi_major_axis" : "1.870528803995255",
        "inclination" : "10.17294219219108",
        "ascending_node_longitude" : "57.11471682373774",
        "orbital_period" : "934.4262435819849",
        "perihelion_distance" : ".3833265996108935",
        "perihelion_argument" : "188.5238648259894",
        "aphelion_distance" : "3.357731008379616",
        "perihelion_time" : "2457560.172150052300",
        "mean_anomaly" : "169.6420954247995",
        "mean_motion" : ".3852631520921257",
        "equinox" : "J2000"
      }
    }, {
      "links" : {
        "self" : "https://api.nasa.gov/neo/rest/v1/neo/3315651?api_key=t0TVs3DtDT2H8Oy2Zy8m2eVrNsAVKAexjcZXUckd"
      },
      "neo_reference_id" : "3315651",
      "name" : "(2006 CK)",
      "nasa_jpl_url" : "http://ssd.jpl.nasa.gov/sbdb.cgi?sstr=3315651",
      "absolute_magnitude_h" : 25.8,
      "estimated_diameter" : {
        "kilometers" : {
          "estimated_diameter_min" : 0.0183888672,
          "estimated_diameter_max" : 0.0411187571
        },
        "meters" : {
          "estimated_diameter_min" : 18.388867207,
          "estimated_diameter_max" : 41.1187571041
        },
        "miles" : {
          "estimated_diameter_min" : 0.0114263088,
          "estimated_diameter_max" : 0.0255500032
        },
        "feet" : {
          "estimated_diameter_min" : 60.3309310875,
          "estimated_diameter_max" : 134.9040630575
        }
      },
      "is_potentially_hazardous_asteroid" : false,
      "close_approach_data" : [ {
        "close_approach_date" : "2006-02-08",
        "epoch_date_close_approach" : 1139385600000,
        "relative_velocity" : {
          "kilometers_per_second" : "6.2235752669",
          "kilometers_per_hour" : "22404.8709606604",
          "miles_per_hour" : "13921.515514417"
        },
        "miss_distance" : {
          "astronomical" : "0.0300450495",
          "lunar" : "11.6875238419",
          "kilometers" : "4494675.5",
          "miles" : "2792861.75"
        },
        "orbiting_body" : "Earth"
      } ],
      "orbital_data" : {
        "orbit_id" : "6",
        "orbit_determination_date" : "2017-04-06 09:09:10",
        "orbit_uncertainty" : "8",
        "minimum_orbit_intersection" : ".0104103",
        "jupiter_tisserand_invariant" : "5.697",
        "epoch_osculation" : "2453769.5",
        "eccentricity" : ".2142922942619332",
        "semi_major_axis" : "1.081732377801944",
        "inclination" : "5.194771535813162",
        "ascending_node_longitude" : "311.0631330147705",
        "orbital_period" : "410.9397669591898",
        "perihelion_distance" : ".8499254647853488",
        "perihelion_argument" : "264.7744351969466",
        "aphelion_distance" : "1.313539290818538",
        "perihelion_time" : "2453837.642043792043",
        "mean_anomaly" : "300.3047898073791",
        "mean_motion" : ".8760407946494781",
        "equinox" : "J2000"
      }
    }, {
      "links" : {
        "self" : "https://api.nasa.gov/neo/rest/v1/neo/3368294?api_key=t0TVs3DtDT2H8Oy2Zy8m2eVrNsAVKAexjcZXUckd"
      },
      "neo_reference_id" : "3368294",
      "name" : "(2007 DA)",
      "nasa_jpl_url" : "http://ssd.jpl.nasa.gov/sbdb.cgi?sstr=3368294",
      "absolute_magnitude_h" : 22.4,
      "estimated_diameter" : {
        "kilometers" : {
          "estimated_diameter_min" : 0.0880146521,
          "estimated_diameter_max" : 0.1968067451
        },
        "meters" : {
          "estimated_diameter_min" : 88.0146520901,
          "estimated_diameter_max" : 196.8067450894
        },
        "miles" : {
          "estimated_diameter_min" : 0.0546897524,
          "estimated_diameter_max" : 0.122290004
        },
        "feet" : {
          "estimated_diameter_min" : 288.7619911632,
          "estimated_diameter_max" : 645.6914415591
        }
      },
      "is_potentially_hazardous_asteroid" : false,
      "close_approach_data" : [ {
        "close_approach_date" : "2006-02-08",
        "epoch_date_close_approach" : 1139385600000,
        "relative_velocity" : {
          "kilometers_per_second" : "13.6427448518",
          "kilometers_per_hour" : "49113.8814664307",
          "miles_per_hour" : "30517.4559589608"
        },
        "miss_distance" : {
          "astronomical" : "0.1538991656",
          "lunar" : "59.8667755127",
          "kilometers" : "23022988",
          "miles" : "14305821"
        },
        "orbiting_body" : "Earth"
      } ],
      "orbital_data" : {
        "orbit_id" : "18",
        "orbit_determination_date" : "2017-04-06 09:07:00",
        "orbit_uncertainty" : "1",
        "minimum_orbit_intersection" : ".0200593",
        "jupiter_tisserand_invariant" : "5.873",
        "epoch_osculation" : "2458000.5",
        "eccentricity" : ".5737126516482606",
        "semi_major_axis" : "1.00986054070864",
        "inclination" : "2.75882662551541",
        "ascending_node_longitude" : "117.2995073059307",
        "orbital_period" : "370.6726400518484",
        "perihelion_distance" : ".4304907721037399",
        "perihelion_argument" : "262.069637273857",
        "aphelion_distance" : "1.58923030931354",
        "perihelion_time" : "2458159.381200453282",
        "mean_anomaly" : "205.6934071120515",
        "mean_motion" : ".9712073703353029",
        "equinox" : "J2000"
      }
    } ]
  }
}